{
    "links": {
        "self": "http://www.neowsapp.com/rest/v1/neo/3346476?api_key=iIulBulltgU6a56xZRHN4H3l9WmuAYTsLGpBGhQ2"
    },
    "id": "3346476",
    "neo_reference_id": "3346476",
    "name": "(2006 SO198)",
    "designation": "2006 SO198",
    "nasa_jpl_url": "http://ssd.jpl.nasa.gov/sbdb.cgi?sstr=3346476",
    "absolute_magnitude_h": 23.9,
    "estimated_diameter": {
        "kilometers": {
            "estimated_diameter_min": 0.04411182,
            "estimated_diameter_max": 0.0986370281
        },
        "meters": {
            "estimated_diameter_min": 44.1118199997,
            "estimated_diameter_max": 98.6370281305
        },
        "miles": {
            "estimated_diameter_min": 0.0274098057,
            "estimated_diameter_max": 0.0612901888
        },
        "feet": {
            "estimated_diameter_min": 144.7238235278,
            "estimated_diameter_max": 323.6123073718
        }
    },
    "is_potentially_hazardous_asteroid": false,
    "close_approach_data": [
        {
            "close_approach_date": "2006-10-02",
            "close_approach_date_full": "2006-Oct-02 22:49",
            "epoch_date_close_approach": 1159829340000,
            "relative_velocity": {
                "kilometers_per_second": "31.8294142477",
                "kilometers_per_hour": "114585.8912917693",
                "miles_per_hour": "71199.2167307108"
            },
            "miss_distance": {
                "astronomical": "0.0050890758",
                "lunar": "1.9796504862",
                "kilometers": "761314.899948546",
                "miles": "473059.1427840948"
            },
            "orbiting_body": "Moon"
        },
        {
            "close_approach_date": "2006-10-02",
            "close_approach_date_full": "2006-Oct-02 23:37",
            "epoch_date_close_approach": 1159832220000,
            "relative_velocity": {
                "kilometers_per_second": "30.8293868111",
                "kilometers_per_hour": "110985.7925199744",
                "miles_per_hour": "68962.2553577585"
            },
            "miss_distance": {
                "astronomical": "0.0031379933",
                "lunar": "1.2206793937",
                "kilometers": "469437.113754271",
                "miles": "291694.6964240998"
            },
            "orbiting_body": "Earth"
        }
    ],
    "orbital_data": {
        "orbit_id": "8",
        "orbit_determination_date": "2017-04-06 09:08:00",
        "first_observation_date": "2006-09-29",
        "last_observation_date": "2006-10-02",
        "data_arc_in_days": 3,
        "observations_used": 26,
        "orbit_uncertainty": "8",
        "minimum_orbit_intersection": ".00226486",
        "jupiter_tisserand_invariant": "3.305",
        "epoch_osculation": "2454009.5",
        "eccentricity": ".8631964392108582",
        "semi_major_axis": "1.927274100658141",
        "inclination": "9.766274076298151",
        "ascending_node_longitude": "10.38583773684918",
        "orbital_period": "977.267946965292",
        "perihelion_distance": ".2636579595867246",
        "perihelion_argument": "125.3700567571172",
        "aphelion_distance": "3.590890241729558",
        "perihelion_time": "2454052.360899160360",
        "mean_anomaly": "344.2111636367036",
        "mean_motion": ".3683738949158286",
        "equinox": "J2000",
        "orbit_class": {
            "orbit_class_type": "APO",
            "orbit_class_description": "Near-Earth asteroid orbits which cross the Earth’s orbit similar to that of 1862 Apollo",
            "orbit_class_range": "a (semi-major axis) > 1.0 AU; q (perihelion) < 1.017 AU"
        }
    },
    "is_sentry_object": false
}